#aV2009  2 26  0  0   .00000000      96 DD+AD WGS84 FIT  NGA
## 1520 345600.00000000   900.00000000 54888  .0000000000000
+   31     2  3  4  5  6  7  8  9 10 11 12 13 14 15 16 17 18
+         19 20 21 22 23 24 25 26 27 28 29 30 31 32  0  0  0
+          0  0  0  0  0  0  0  0  0  0  0  0  0  0  0  0  0
+          0  0  0  0  0  0  0  0  0  0  0  0  0  0  0  0  0
+          0  0  0  0  0  0  0  0  0  0  0  0  0  0  0  0  0
++         0  0  0  0  0  0  0  0  0  0  0  0  0  0  0  0  0
++         0  0  0  0  0  0  0  0  0  0  0  0  0  0  0  0  0
++         0  0  0  0  0  0  0  0  0  0  0  0  0  0  0  0  0
++         0  0  0  0  0  0  0  0  0  0  0  0  0  0  0  0  0
++         0  0  0  0  0  0  0  0  0  0  0  0  0  0  0  0  0
%c cc cc ccc ccc cccc cccc cccc cccc ccccc ccccc ccccc ccccc
%c cc cc ccc ccc cccc cccc cccc cccc ccccc ccccc ccccc ccccc
%f  0.0000000  0.000000000  0.00000000000  0.000000000000000
%f  0.0000000  0.000000000  0.00000000000  0.000000000000000
%i    0    0    0    0      0      0      0      0         0
%i    0    0    0    0      0      0      0      0         0
/*      NGA, ST. LOUIS,MO.                                  
/*   EPHEMERIS COMPUTED FROM  3 DAYS OF DATA                
/* CCCCCCCCCCCCCCCCCCCCCCCCCCCCCCCCCCCCCCCCCCCCCCCCCCCCCCCCC
/* CCCCCCCCCCCCCCCCCCCCCCCCCCCCCCCCCCCCCCCCCCCCCCCCCCCCCCCCC
*  2009  2 26 23 30   .00000000                                                 
P  2  13504.501494  21398.204219  -8827.545244    156.176716                    
V  2    648.038339  11290.143082  28347.462368      -.010872                    
P  3 -22077.915588 -10797.545267 -10812.741464    358.446684                    
V  3  13500.632832  -1429.041938 -26538.859299       .051595                    
P  4   5012.709496  25639.211192   3386.581376   -351.500641                    
V  4  -4869.222834  -3269.331783  31146.239495      -.142073                    
P  5  20200.906471 -12069.189103  11898.004272     -1.702247                    
V  5  -7253.439817  14173.832486  26166.679601      -.032541                    
P  6 -18317.814276 -13563.191855 -13476.757495      5.228147                    
V  6  17704.961579    401.229887 -24096.838475       .201458                    
P  7  -9452.669616  15317.941359 -19510.625868     22.274426                    
V  7  -8370.371339 -23334.283331 -14382.244450      -.003918                    
P  8  -1299.963070  24144.575014 -10445.529420   -192.369079                    
V  8  -5154.808622 -12457.692310 -28778.101378      -.015094                    
P  9  15716.314123   2795.850241  20605.785913     42.608281                    
V  9   8187.792702  26366.637899  -9428.413233       .020496                    
P 10  13649.766537   7744.311065 -21620.575047    -11.792890                    
V 10 -18800.783052  19445.996809  -4605.006837      -.006995                    
P 11 -17841.630142    411.575082  19547.988367      6.266812                    
V 11 -11034.688277 -23032.173651  -9136.684868      -.011752                    
P 12  21036.139738  -8130.025537  14018.514901   -311.903402                    
V 12 -10653.504890  14294.537045  24513.902118       .039885                    
P 13 -17674.127941   7348.074115 -18531.225947    289.875265                    
V 13 -22010.250985  -7405.569634  18185.113656       .011957                    
P 14  -2381.472370 -15399.817106  21644.856097   -148.497171                    
V 14  26253.068292   6742.750811   7624.789288       .054219                    
P 15  25760.606400   6481.789962  -1144.981173   -262.099461                    
V 15  -2071.512704   2502.819479 -31595.273160      -.050786                    
P 16  -7801.826505 -13263.842897 -21562.732828     71.621971                    
V 16  19623.392636 -19319.726898   4992.877373      -.029144                    
P 17   -191.639251  15542.176937  21609.575463     48.343855                    
V 17 -26540.891667  -6356.810819   4162.679355       .012667                    
P 18  16029.596604 -20514.951340   4360.798658    -79.639903                    
V 18   6321.193312  -1246.358627 -30942.879970       .035263                    
P 19 -25776.132760  -6695.669732   1812.831893     31.682790                    
V 19  -1307.786293  -3234.703845 -31427.648388      -.007296                    
P 20 -21137.223710  10873.619656  11673.581610     89.646067                    
V 20   7900.304205 -13163.039993  26325.829858      -.010854                    
P 21   7434.898458 -18865.361092 -16591.017533     27.076364                    
V 21   8521.882061  20290.540381 -19608.975118      -.018968                    
P 22   7490.532935 -21512.755706  13761.994761    204.421059                    
V 22  14155.554777 -10278.851373 -24102.013980      -.004300                    
P 23 -24594.687517   1375.962434 -10327.860676    387.616904                    
V 23 -12121.703017  -4940.787441  28077.201352       .005533                    
P 24  14501.317289  -5262.060839 -21496.551227    168.785039                    
V 24   6728.595796  26807.923372  -1747.777860       .030751                    
P 25 -12370.327414   8757.783315 -21471.854456    267.945637                    
V 25 -10893.081453 -25874.046899  -4019.715742       .238586                    
P 26  23310.367546  11595.280986  -7119.207521     47.450816                    
V 26  -8163.815486  -1171.294911 -30445.698205       .026453                    
P 27  11500.178231  23704.780152   3821.484087     27.953996                    
V 27   -847.760540   4593.820826 -31580.740026       .031204                    
P 28  -9224.555446  21570.604493  12551.366804    -23.604732                    
V 28 -12487.941405   9277.198640 -26320.537588       .000352                    
P 29  18864.368335  -7418.765635 -17040.669038     -6.380186                    
V 29  20698.926911   7238.603852  19677.270911       .034618                    
P 30  18906.933961 -18202.256209   3406.070489    128.958724                    
V 30   -697.219396   5712.735410  31196.370994       .024261                    
P 31  -6723.717168 -25585.465818   1533.750899    -52.983204                    
V 31   2967.920649    863.887771  31997.595933      -.013086                    
P 32 -20070.450366   1645.797903  17597.846707    291.676943                    
V 32  15000.363313 -15681.703395  19249.507734      -.036311                    
EOF
